{
  "norad_id": 64004,
  "name": "STARLINK-33758",
  "history": [
    {
      "epoch": "2026-03-28T18:42:38.443968Z",
      "apogee_km": 484.38991875019474,
      "perigee_km": 481.54077738913566,
      "latitude_deg": 9.610765741455134e-06,
      "longitude_deg": 143.40227089193715,
      "height_km": 482.6939774742349,
      "semi_major_axis_km": 6861.102348069665,
      "eccentricity": 0.00020763,
      "inclination_deg": 43.0031,
      "raan_deg": 250.2576,
      "arg_perigee_deg": 271.9691,
      "mean_anomaly_deg": 88.0923,
      "mean_motion_rev_day": 15.27607969
    }
  ]
}